GLOBALSTAR M063         
1 26081U 00008A   25193.87428072 -.00000112  00000+0 -43144-3 0  9997
2 26081  51.9970  43.9215 0004901  15.8937 107.3279 11.86173751160625
GLOBALSTAR M062         
1 26082U 00008B   25193.84963293 -.00000196  00000+0 -70115-3 0  9994
2 26082  51.9868  20.3170 0007379 159.7231 283.8226 12.43469319499818
GLOBALSTAR M060         
1 26083U 00008C   25193.77589005 -.00000190  00000+0 -98842-3 0  9993
2 26083  52.0045 344.1616 0003582 164.0711 343.0538 12.17665119155488
GLOBALSTAR M064         
1 26084U 00008D   25193.87795952 -.00000075  00000+0  11114-3 0  9993
2 26084  52.0015 142.4358 0001398  89.1853 270.9140 11.88534708170159
GLOBALSTAR M065         
1 31571U 07020A   25193.88363896 -.00000109  00000+0 -29238-4 0  9996
2 31571  51.9877 148.0549 0010389   6.4023  41.6626 12.62010164836659
GLOBALSTAR M069         
1 31573U 07020C   25193.89911913 -.00000084  00000+0  80689-4 0  9996
2 31573  51.9939 132.4487 0000701 202.0811 199.7573 12.23447041837274
GLOBALSTAR M072         
1 31574U 07020D   25193.95376413 -.00000054  00000+0  41073-3 0  9994
2 31574  51.9938 283.3754 0000889  46.7387 125.4806 11.91650274834534
GLOBALSTAR M071         
1 31576U 07020F   25193.66992149 -.00000052  00000+0  38544-3 0  9991
2 31576  52.0038 159.4213 0000496 151.1865  19.4631 12.18255800498044
